STARLINK-2614           
1 48380U 21038AD  26154.64349569  .00007269  00000+0  24579-3 0  9994
2 48380  53.1590 305.8132 0001209  73.3063 286.8071 15.31697999280421
STARLINK-2630           
1 48381U 21038AE  26155.33356481  .00069804  00000+0  22433-2 0  9992
2 48381  53.1605 305.3222 0001253  97.5986 210.6619 15.31655487  5812
STARLINK-2585           
1 48382U 21038AF  26154.76529914  .00009812  00000+0  32722-3 0  9998
2 48382  53.1604 307.3997 0001122  57.4233 302.6877 15.31731014280418
STARLINK-2598           
1 48385U 21038AJ  26154.64813491  .00008545  00000+0  28656-3 0  9997
2 48385  53.1602 305.5802 0001334 103.3982 256.7169 15.31728090281651
STARLINK-2606           
1 48386U 21038AK  26154.62450331  .00007773  00000+0  26191-3 0  9990
2 48386  53.1606 305.8118 0001224 109.5528 250.5606 15.31708761280415
STARLINK-2594           
1 48388U 21038AM  26154.62913468  .00002428  00000+0  89962-4 0  9995
2 48388  53.1599 305.5777 0001070  79.5289 280.5833 15.31703909280420
STARLINK-2586           
1 48390U 21038AP  26154.63108670  .00002034  00000+0  77274-4 0  9996
2 48390  53.1602 292.8967 0001125  97.3311 262.7819 15.31705156281829
STARLINK-2607           
1 48391U 21038AQ  26154.59351827  .00007348  00000+0  24822-3 0  9999
2 48391  53.1613 293.4293 0001409  72.8595 287.2561 15.31711628281814
STARLINK-2605           
1 48392U 21038AR  26154.61243269  .00004304  00000+0  15031-3 0  9994
2 48392  53.1599 292.8891 0001103  96.3398 263.7729 15.31714158281825
STARLINK-2574           
1 48395U 21038AU  26154.62672730  .00003179  00000+0  11413-3 0  9996
2 48395  53.1602 295.1684 0001315  95.2605 264.8547 15.31712890281790
STARLINK-2575           
1 48396U 21038AV  26154.59844486  .00006595  00000+0  22400-3 0  9995
2 48396  53.1587 292.9044 0001194  67.5463 292.5665 15.31712751281826
STARLINK-2590           
1 48397U 21038AW  26154.60777742  .00000879  00000+0  40067-4 0  9997
2 48397  53.1595 292.9910 0001042 105.5071 254.6045 15.31705497281828
STARLINK-2588           
1 48398U 21038AX  26154.63015602  .00036718  00000+0  16971-2 0  9997
2 48398  53.0737 306.6213 0003394  36.4775 323.6450 15.19850562281614
STARLINK-2587           
1 48399U 21038AY  26154.59379011  .00007769  00000+0  26168-3 0  9994
2 48399  53.1600 292.9902 0001118  61.2031 298.9082 15.31720110281816
STARLINK-2576           
1 48400U 21038AZ  26155.33356481  .00055547  00000+0  17904-2 0  9990
2 48400  53.1586 289.8338 0000918 100.1478 252.6619 15.31664262  5660
STARLINK-2571           
1 48401U 21038BA  26154.65409273  .00006204  00000+0  21141-3 0  9998
2 48401  53.1601 293.0292 0001348  54.0932 306.0195 15.31715284280608
STARLINK-2593           
1 48404U 21038BD  26154.65439343  .00006566  00000+0  22303-3 0  9994
2 48404  53.1618 292.8069 0001156  81.5691 278.5442 15.31717140280614
STARLINK-2570           
1 48405U 21038BE  26154.92939738  .00006768  00000+0  22953-3 0  9993
2 48405  53.1587 291.7016 0001093  66.6857 293.4260 15.31716080280647
STARLINK-2568           
1 48406U 21038BF  26154.63617808  .00009409  00000+0  31439-3 0  9997
2 48406  53.1618 296.0614 0001083  85.8623 274.2502 15.31718496280568
STARLINK-2592           
1 48408U 21038BH  26155.33356481  .00053452  00000+0  17233-2 0  9996
2 48408  53.1584 290.1235 0001121  96.9064 229.9582 15.31674718  5738
STARLINK-2563           
1 48410U 21038BK  26154.57561450  .00004895  00000+0  16935-3 0  9994
2 48410  53.1586 257.0814 0001529 108.3240 251.7928 15.31709742281104
STARLINK-2505           
1 48411U 21038BL  26154.82160752  .00000376  00000+0  23888-4 0  9999
2 48411  53.1587 253.2127 0001346 105.1124 255.0027 15.31698157281175
STARLINK-2581           
1 48412U 21038BM  26154.59891824  .00011797  00000+0  39120-3 0  9999
2 48412  53.1588 256.8502 0001602  62.0702 298.0462 15.31708985281105
YAOGAN-30 09A           
1 48423U 21039A   26155.27410578  .00003107  00000+0  23037-3 0  9997
2 48423  34.9965 110.3257 0005045 287.4315  72.5842 15.02660643277605
YAOGAN-30 09B           
1 48424U 21039B   26155.25078024  .00002857  00000+0  21220-3 0  9995
2 48424  34.9948 109.8919 0003344  69.5285 290.5782 15.02633285277595
YAOGAN-30 09C           
1 48425U 21039C   26155.29621049  .00003139  00000+0  23273-3 0  9995
2 48425  34.9944 109.2999 0002171 306.2476  53.8031 15.02666189277613
TIANQI-12               
1 48426U 21039D   26155.10922311  .00006222  00000+0  35650-3 0  9990
2 48426  34.9996  46.5987 0003917 202.4958 157.5582 15.11952655278241
STARLINK-2461           
1 48428U 21040A   26154.22945141  .00009752  00000+0  32542-3 0  9990
2 48428  53.1582 140.8399 0001318  96.3472 263.7680 15.31717612279789
STARLINK-2700           
1 48431U 21040D   26155.08053576  .00000777  00000+0  36798-4 0  9997
2 48431  53.1600 110.9485 0001164  86.3542 273.7593 15.31703976280261
STARLINK-2680           
1 48432U 21040E   26155.07588637  .00001458  00000+0  58719-4 0  9992
2 48432  53.1590 111.0695 0001146 112.9194 247.1929 15.31705786280252
