OBJECT_NAME,OBJECT_ID,EPOCH,MEAN_MOTION,ECCENTRICITY,INCLINATION,RA_OF_ASC_NODE,ARG_OF_PERICENTER,MEAN_ANOMALY,EPHEMERIS_TYPE,CLASSIFICATION_TYPE,NORAD_CAT_ID,ELEMENT_SET_NO,REV_AT_EPOCH,BSTAR,MEAN_MOTION_DOT,MEAN_MOTION_DDOT
STARLINK-2614,2021-038AD,2026-06-03T15:26:38.027616,15.31697999,.0001209,53.1590,305.8132,73.3063,286.8071,0,U,48380,999,28042,.24579E-3,.7269E-4,0
STARLINK-2630,2021-038AE,2026-06-04T08:00:19.999584,15.31655487,.00012537,53.1605,305.3222,97.5986,210.6619,0,U,48381,999,581,.22433312E-2,.69804E-3,0
STARLINK-2585,2021-038AF,2026-06-03T18:22:01.845696,15.31731014,.00011227,53.1604,307.3997,57.4233,302.6877,0,U,48382,999,28041,.32721578E-3,.9812E-4,0
STARLINK-2598,2021-038AJ,2026-06-03T15:33:18.856224,15.31728090,.0001334,53.1602,305.5802,103.3982,256.7169,0,U,48385,999,28165,.28656E-3,.8545E-4,0
STARLINK-2606,2021-038AK,2026-06-03T14:59:17.085984,15.31708761,.0001224,53.1606,305.8118,109.5528,250.5606,0,U,48386,999,28041,.26191E-3,.7773E-4,0
STARLINK-2594,2021-038AM,2026-06-03T15:05:57.236352,15.31703909,.000107,53.1599,305.5777,79.5289,280.5833,0,U,48388,999,28042,.89962E-4,.2428E-4,0
STARLINK-2586,2021-038AP,2026-06-03T15:08:45.890880,15.31705156,.0001125,53.1602,292.8967,97.3311,262.7819,0,U,48390,999,28182,.77274E-4,.2034E-4,0
STARLINK-2607,2021-038AQ,2026-06-03T14:14:39.978528,15.31711628,.00014092,53.1613,293.4293,72.8595,287.2561,0,U,48391,999,28181,.24821506E-3,.7348E-4,0
STARLINK-2605,2021-038AR,2026-06-03T14:41:54.184416,15.31714158,.00011038,53.1599,292.8891,96.3398,263.7729,0,U,48392,999,28182,.15030833E-3,.4304E-4,0
STARLINK-2574,2021-038AU,2026-06-03T15:02:29.238720,15.31712890,.0001315,53.1602,295.1684,95.2605,264.8547,0,U,48395,999,28179,.11413E-3,.3179E-4,0
STARLINK-2575,2021-038AV,2026-06-03T14:21:45.635904,15.31712751,.00011949,53.1587,292.9044,67.5463,292.5665,0,U,48396,999,28182,.22399569E-3,.6595E-4,0
STARLINK-2590,2021-038AW,2026-06-03T14:35:11.969088,15.31705497,.00010423,53.1595,292.9910,105.5071,254.6045,0,U,48397,999,28182,.40066506E-4,.879E-5,0
STARLINK-2588,2021-038AX,2026-06-03T15:07:25.480128,15.19850562,.0003394,53.0737,306.6213,36.4775,323.6450,0,U,48398,999,28161,.16971E-2,.36718E-3,0
STARLINK-2587,2021-038AY,2026-06-03T14:15:03.465504,15.31720110,.00011189,53.1600,292.9902,61.2031,298.9082,0,U,48399,999,28181,.26168289E-3,.7769E-4,0
STARLINK-2576,2021-038AZ,2026-06-04T08:00:19.999584,15.31664262,.00009183,53.1586,289.8338,100.1478,252.6619,0,U,48400,999,566,.17904466E-2,.55547E-3,0
STARLINK-2571,2021-038BA,2026-06-03T15:41:53.611872,15.31715284,.00013481,53.1601,293.0292,54.0932,306.0195,0,U,48401,999,28060,.21141189E-3,.6204E-4,0
STARLINK-2593,2021-038BD,2026-06-03T15:42:19.592352,15.31717140,.00011565,53.1618,292.8069,81.5691,278.5442,0,U,48404,999,28061,.22303167E-3,.6566E-4,0
STARLINK-2570,2021-038BE,2026-06-03T22:18:19.933632,15.31716080,.0001093,53.1587,291.7016,66.6857,293.4260,0,U,48405,999,28064,.22953E-3,.6768E-4,0
STARLINK-2568,2021-038BF,2026-06-03T15:16:05.786112,15.31718496,.0001083,53.1618,296.0614,85.8623,274.2502,0,U,48406,999,28056,.31439E-3,.9409E-4,0
STARLINK-2592,2021-038BH,2026-06-04T08:00:19.999584,15.31674718,.00011213,53.1584,290.1235,96.9064,229.9582,0,U,48408,999,573,.17232867E-2,.53452E-3,0
STARLINK-2563,2021-038BK,2026-06-03T13:48:53.092800,15.31709742,.00015291,53.1586,257.0814,108.3240,251.7928,0,U,48410,999,28110,.16934532E-3,.4895E-4,0
STARLINK-2505,2021-038BL,2026-06-03T19:43:06.889728,15.31698157,.00013461,53.1587,253.2127,105.1124,255.0027,0,U,48411,999,28117,.23888185E-4,.376E-5,0
STARLINK-2581,2021-038BM,2026-06-03T14:22:26.535936,15.31708985,.00016025,53.1588,256.8502,62.0702,298.0462,0,U,48412,999,28110,.39120324E-3,.11797E-3,0
YAOGAN-30 09A,2021-039A,2026-06-04T06:34:42.739392,15.02660643,.00050458,34.9965,110.3257,287.4315,72.5842,0,U,48423,999,27760,.2303728E-3,.3107E-4,0
YAOGAN-30 09B,2021-039B,2026-06-04T06:01:07.412736,15.02633285,.00033442,34.9948,109.8919,69.5285,290.5782,0,U,48424,999,27759,.21219933E-3,.2857E-4,0
YAOGAN-30 09C,2021-039C,2026-06-04T07:06:32.586336,15.02666189,.00021716,34.9944,109.2999,306.2476,53.8031,0,U,48425,999,27761,.23273198E-3,.3139E-4,0
TIANQI-12,2021-039D,2026-06-04T02:37:16.876704,15.11952655,.00039177,34.9996,46.5987,202.4958,157.5582,0,U,48426,999,27824,.35650345E-3,.6222E-4,0
STARLINK-2461,2021-040A,2026-06-03T05:30:24.601824,15.31717612,.0001318,53.1582,140.8399,96.3472,263.7680,0,U,48428,999,27978,.32542E-3,.9752E-4,0
STARLINK-2700,2021-040D,2026-06-04T01:55:58.289664,15.31703976,.00011647,53.1600,110.9485,86.3542,273.7593,0,U,48431,999,28026,.36798102E-4,.777E-5,0
STARLINK-2680,2021-040E,2026-06-04T01:49:16.582368,15.31705786,.00011465,53.1590,111.0695,112.9194,247.1929,0,U,48432,999,28025,.58719015E-4,.1458E-4,0
